{
  "type": "FeatureCollection",
  "features": [
    {
      "type": "Feature",
      "properties": {
        "norad_id": 28890,
        "name": "BEIJING 1",
        "group": "dmc",
        "lat": -69.21056069652532,
        "lon": 127.86420604504032,
        "alt_km": 695.0062045086206,
        "timestamp": "2025-12-03T20:47:57.883466+00:00",
        "meta_object_name": "BEIJING 1",
        "meta_object_id": "2005-043A",
        "meta_epoch": "2025-12-03T12:55:06.088224",
        "meta_mean_motion": 14.63351749,
        "meta_eccentricity": 0.001485,
        "meta_inclination": 98.265,
        "meta_ra_of_asc_node": 105.0238,
        "meta_arg_of_pericenter": 169.3234,
        "meta_mean_anomaly": 190.8286,
        "meta_ephemeris_type": 0,
        "meta_classification_type": "U",
        "meta_norad_cat_id": 28890,
        "meta_element_set_no": 999,
        "meta_rev_at_epoch": 7203,
        "meta_bstar": 0.00013739,
        "meta_mean_motion_dot": 6.62e-06,
        "meta_mean_motion_ddot": 0,
        "tle_line1": "1 28890U 05043A   25337.53826491  .00000662  00000+0  13739-3 0  9996",
        "tle_line2": "2 28890  98.2650 105.0238 0014850 169.3234 190.8286 14.63351749 72033"
      },
      "geometry": {
        "type": "Point",
        "coordinates": [
          127.86420604504032,
          -69.21056069652532
        ]
      }
    },
    {
      "type": "Feature",
      "properties": {
        "norad_id": 33320,
        "name": "HUANJING 1A (HJ-1A)",
        "group": "dmc",
        "lat": 37.92037091035518,
        "lon": -39.4770178984072,
        "alt_km": 602.7597771305736,
        "timestamp": "2025-12-03T20:47:57.883494+00:00",
        "meta_object_name": "HUANJING 1A (HJ-1A)",
        "meta_object_id": "2008-041A",
        "meta_epoch": "2025-12-03T12:31:58.620864",
        "meta_mean_motion": 14.83346429,
        "meta_eccentricity": 0.0020647,
        "meta_inclination": 97.6536,
        "meta_ra_of_asc_node": 326.2063,
        "meta_arg_of_pericenter": 62.9456,
        "meta_mean_anomaly": 297.3863,
        "meta_ephemeris_type": 0,
        "meta_classification_type": "U",
        "meta_norad_cat_id": 33320,
        "meta_element_set_no": 999,
        "meta_rev_at_epoch": 92939,
        "meta_bstar": 0.00026912,
        "meta_mean_motion_dot": 2.162e-05,
        "meta_mean_motion_ddot": 0,
        "tle_line1": "1 33320U 08041A   25337.52220626  .00002162  00000+0  26912-3 0  9992",
        "tle_line2": "2 33320  97.6536 326.2063 0020647  62.9456 297.3863 14.83346429929396"
      },
      "geometry": {
        "type": "Point",
        "coordinates": [
          -39.4770178984072,
          37.92037091035518
        ]
      }
    },
    {
      "type": "Feature",
      "properties": {
        "norad_id": 33321,
        "name": "HUANJING 1B (HJ-1B)",
        "group": "dmc",
        "lat": -79.09247033414904,
        "lon": 14.40444822383845,
        "alt_km": 654.4763892039682,
        "timestamp": "2025-12-03T20:47:57.883508+00:00",
        "meta_object_name": "HUANJING 1B (HJ-1B)",
        "meta_object_id": "2008-041B",
        "meta_epoch": "2025-12-03T13:04:26.048352",
        "meta_mean_motion": 14.82782056,
        "meta_eccentricity": 0.0038163,
        "meta_inclination": 97.6396,
        "meta_ra_of_asc_node": 329.9488,
        "meta_arg_of_pericenter": 104.8212,
        "meta_mean_anomaly": 255.7234,
        "meta_ephemeris_type": 0,
        "meta_classification_type": "U",
        "meta_norad_cat_id": 33321,
        "meta_element_set_no": 999,
        "meta_rev_at_epoch": 92941,
        "meta_bstar": 0.00021388,
        "meta_mean_motion_dot": 1.699e-05,
        "meta_mean_motion_ddot": 0,
        "tle_line1": "1 33321U 08041B   25337.54474593  .00001699  00000+0  21388-3 0  9995",
        "tle_line2": "2 33321  97.6396 329.9488 0038163 104.8212 255.7234 14.82782056929412"
      },
      "geometry": {
        "type": "Point",
        "coordinates": [
          14.40444822383845,
          -79.09247033414904
        ]
      }
    },
    {
      "type": "Feature",
      "properties": {
        "norad_id": 33446,
        "name": "YAOGAN-4",
        "group": "dmc",
        "lat": -13.674383407040208,
        "lon": 86.11340013908375,
        "alt_km": 635.0711322084617,
        "timestamp": "2025-12-03T20:47:57.883520+00:00",
        "meta_object_name": "YAOGAN-4",
        "meta_object_id": "2008-061A",
        "meta_epoch": "2025-12-03T08:35:24.296640",
        "meta_mean_motion": 14.8263402,
        "meta_eccentricity": 0.0014411,
        "meta_inclination": 97.917,
        "meta_ra_of_asc_node": 267.5501,
        "meta_arg_of_pericenter": 354.6933,
        "meta_mean_anomaly": 5.4125,
        "meta_ephemeris_type": 0,
        "meta_classification_type": "U",
        "meta_norad_cat_id": 33446,
        "meta_element_set_no": 999,
        "meta_rev_at_epoch": 91664,
        "meta_bstar": 0.00028686,
        "meta_mean_motion_dot": 2.261e-05,
        "meta_mean_motion_ddot": 0,
        "tle_line1": "1 33446U 08061A   25337.35792010  .00002261  00000+0  28686-3 0  9995",
        "tle_line2": "2 33446  97.9170 267.5501 0014411 354.6933   5.4125 14.82634020916648"
      },
      "geometry": {
        "type": "Point",
        "coordinates": [
          86.11340013908375,
          -13.674383407040208
        ]
      }
    },
    {
      "type": "Feature",
      "properties": {
        "norad_id": 35681,
        "name": "DEIMOS-1",
        "group": "dmc",
        "lat": -29.757399922646506,
        "lon": -45.56151928013188,
        "alt_km": 652.1128595177315,
        "timestamp": "2025-12-03T20:47:57.883531+00:00",
        "meta_object_name": "DEIMOS-1",
        "meta_object_id": "2009-041A",
        "meta_epoch": "2025-12-03T11:42:35.088768",
        "meta_mean_motion": 14.74929428,
        "meta_eccentricity": 0.0002677,
        "meta_inclination": 97.7146,
        "meta_ra_of_asc_node": 138.5224,
        "meta_arg_of_pericenter": 96.748,
        "meta_mean_anomaly": 263.4034,
        "meta_ephemeris_type": 0,
        "meta_classification_type": "U",
        "meta_norad_cat_id": 35681,
        "meta_element_set_no": 999,
        "meta_rev_at_epoch": 87803,
        "meta_bstar": 0.0001719,
        "meta_mean_motion_dot": 1.107e-05,
        "meta_mean_motion_ddot": 0,
        "tle_line1": "1 35681U 09041A   25337.48790612  .00001107  00000+0  17190-3 0  9993",
        "tle_line2": "2 35681  97.7146 138.5224 0002677  96.7480 263.4034 14.74929428878038"
      },
      "geometry": {
        "type": "Point",
        "coordinates": [
          -45.56151928013188,
          -29.757399922646506
        ]
      }
    },
    {
      "type": "Feature",
      "properties": {
        "norad_id": 35683,
        "name": "UK-DMC 2",
        "group": "dmc",
        "lat": -23.575900773196825,
        "lon": -70.43380573110413,
        "alt_km": 648.9795581887165,
        "timestamp": "2025-12-03T20:47:57.883542+00:00",
        "meta_object_name": "UK-DMC 2",
        "meta_object_id": "2009-041C",
        "meta_epoch": "2025-12-03T11:44:30.986592",
        "meta_mean_motion": 14.75588187,
        "meta_eccentricity": 0.000129,
        "meta_inclination": 97.8557,
        "meta_ra_of_asc_node": 112.6538,
        "meta_arg_of_pericenter": 102.811,
        "meta_mean_anomaly": 257.3244,
        "meta_ephemeris_type": 0,
        "meta_classification_type": "U",
        "meta_norad_cat_id": 35683,
        "meta_element_set_no": 999,
        "meta_rev_at_epoch": 87770,
        "meta_bstar": 0.00023807,
        "meta_mean_motion_dot": 1.574e-05,
        "meta_mean_motion_ddot": 0,
        "tle_line1": "1 35683U 09041C   25337.48924753  .00001574  00000+0  23807-3 0  9990",
        "tle_line2": "2 35683  97.8557 112.6538 0001290 102.8110 257.3244 14.75588187877709"
      },
      "geometry": {
        "type": "Point",
        "coordinates": [
          -70.43380573110413,
          -23.575900773196825
        ]
      }
    },
    {
      "type": "Feature",
      "properties": {
        "norad_id": 40715,
        "name": "DMC3-FM1",
        "group": "dmc",
        "lat": -59.71343915781463,
        "lon": -141.2773802874629,
        "alt_km": 617.2152364134845,
        "timestamp": "2025-12-03T20:47:57.883553+00:00",
        "meta_object_name": "DMC3-FM1",
        "meta_object_id": "2015-032A",
        "meta_epoch": "2025-12-03T12:59:17.117376",
        "meta_mean_motion": 14.85414112,
        "meta_eccentricity": 0.0005318,
        "meta_inclination": 97.6699,
        "meta_ra_of_asc_node": 205.0684,
        "meta_arg_of_pericenter": 353.8536,
        "meta_mean_anomaly": 6.2613,
        "meta_ephemeris_type": 0,
        "meta_classification_type": "U",
        "meta_norad_cat_id": 40715,
        "meta_element_set_no": 999,
        "meta_rev_at_epoch": 56086,
        "meta_bstar": 0.00015477,
        "meta_mean_motion_dot": 1.282e-05,
        "meta_mean_motion_ddot": 0,
        "tle_line1": "1 40715U 15032A   25337.54117034  .00001282  00000+0  15477-3 0  9992",
        "tle_line2": "2 40715  97.6699 205.0684 0005318 353.8536   6.2613 14.85414112560864"
      },
      "geometry": {
        "type": "Point",
        "coordinates": [
          -141.2773802874629,
          -59.71343915781463
        ]
      }
    },
    {
      "type": "Feature",
      "properties": {
        "norad_id": 40716,
        "name": "DMC3-FM2",
        "group": "dmc",
        "lat": 0.6474474625932467,
        "lon": 26.9067811562401,
        "alt_km": 619.3995022682766,
        "timestamp": "2025-12-03T20:47:57.883564+00:00",
        "meta_object_name": "DMC3-FM2",
        "meta_object_id": "2015-032B",
        "meta_epoch": "2025-12-03T13:31:41.679840",
        "meta_mean_motion": 14.8541549,
        "meta_eccentricity": 0.0005968,
        "meta_inclination": 97.6756,
        "meta_ra_of_asc_node": 206.5274,
        "meta_arg_of_pericenter": 357.9347,
        "meta_mean_anomaly": 2.1843,
        "meta_ephemeris_type": 0,
        "meta_classification_type": "U",
        "meta_norad_cat_id": 40716,
        "meta_element_set_no": 999,
        "meta_rev_at_epoch": 56086,
        "meta_bstar": 0.00015678,
        "meta_mean_motion_dot": 1.299e-05,
        "meta_mean_motion_ddot": 0,
        "tle_line1": "1 40716U 15032B   25337.56367685  .00001299  00000+0  15678-3 0  9995",
        "tle_line2": "2 40716  97.6756 206.5274 0005968 357.9347   2.1843 14.85415490560866"
      },
      "geometry": {
        "type": "Point",
        "coordinates": [
          26.9067811562401,
          0.6474474625932467
        ]
      }
    },
    {
      "type": "Feature",
      "properties": {
        "norad_id": 40717,
        "name": "DMC3-FM3",
        "group": "dmc",
        "lat": 62.93339076187719,
        "lon": -166.8678700855083,
        "alt_km": 604.5945680750474,
        "timestamp": "2025-12-03T20:47:57.883575+00:00",
        "meta_object_name": "DMC3-FM3",
        "meta_object_id": "2015-032C",
        "meta_epoch": "2025-12-03T12:25:44.978880",
        "meta_mean_motion": 14.85408864,
        "meta_eccentricity": 0.0005332,
        "meta_inclination": 97.6811,
        "meta_ra_of_asc_node": 208.1101,
        "meta_arg_of_pericenter": 0.3003,
        "meta_mean_anomaly": 359.8214,
        "meta_ephemeris_type": 0,
        "meta_classification_type": "U",
        "meta_norad_cat_id": 40717,
        "meta_element_set_no": 999,
        "meta_rev_at_epoch": 56086,
        "meta_bstar": 0.00012674,
        "meta_mean_motion_dot": 1.04e-05,
        "meta_mean_motion_ddot": 0,
        "tle_line1": "1 40717U 15032C   25337.51788170  .00001040  00000+0  12674-3 0  9994",
        "tle_line2": "2 40717  97.6811 208.1101 0005332   0.3003 359.8214 14.85408864560860"
      },
      "geometry": {
        "type": "Point",
        "coordinates": [
          -166.8678700855083,
          62.93339076187719
        ]
      }
    }
  ]
}